TEVEL2-4                
1 63213U 25052D   26068.69417973  .00020990  00000+0  70363-3 0  9998
2 63213  97.4009 325.1237 0004733  95.3468 264.8313 15.30925813 54879
STARLINK-36515          
1 67430U 26005AC  26067.57094610  .00039239  00000+0  14270-2 0  9997
2 67430  42.9999 244.4472 0001614 259.2943 100.7727 15.27599080  8511
